SatCatId,ObjectName,LaunchYear,OrbitalPeriod,LaunchMass,StatusCode,Inclination,Status,UcsData,OrbitClassEstimated,LaunchSiteCountry,Owner,UseType,Purpose,LaunchVehicleClass,TLE1,TLE2,MeanMotion,Eccentricity,OrbitClass
64441,STARLINK-34453,2025,93.53,-1.0,+,53.16,Active,0,LEO,USA,USA,Unknown,Unknown,Unknown,1 64441U 25130D   25272.85569274  .00068052  00000+0  16949-2 0  9995,2 64441  53.1578 117.3750 0000965  51.0788 309.0303 15.39641946 16051,15.39641946,9.65e-05,LEO
64442,STARLINK-34404,2025,93.53,-1.0,+,53.16,Active,0,LEO,USA,USA,Unknown,Unknown,Unknown,1 64442U 25130E   25273.56511108  .00082468  00000+0  20467-2 0  9995,2 64442  53.1582 113.9825 0001183  70.2635 289.8497 15.39660347 16166,15.39660347,0.0001183,LEO
64443,STARLINK-34403,2025,93.53,-1.0,+,53.16,Active,0,LEO,USA,USA,Unknown,Unknown,Unknown,1 64443U 25130F   25273.54188865  .00084209  00000+0  20879-2 0  9996,2 64443  53.1587 113.8327 0001300 111.6362 248.4781 15.39680403 16168,15.39680403,0.00013,LEO
64444,STARLINK-34399,2025,93.53,-1.0,+,53.16,Active,0,LEO,USA,USA,Unknown,Unknown,Unknown,1 64444U 25130G   25272.88810265  .00074485  00000+0  18521-2 0  9995,2 64444  53.1590 116.8617 0001168  65.2300 294.8826 15.39650448 16066,15.39650448,0.0001168,LEO
64445,STARLINK-34398,2025,93.53,-1.0,+,53.16,Active,0,LEO,USA,USA,Unknown,Unknown,Unknown,1 64445U 25130H   25273.56046674  .00087095  00000+0  21592-2 0  9990,2 64445  53.1583 113.9496 0000390  42.7002 317.4033 15.39667697 16164,15.39667697,3.9e-05,LEO
64446,STARLINK-34402,2025,93.53,-1.0,+,53.16,Active,0,LEO,USA,USA,Unknown,Unknown,Unknown,1 64446U 25130J   25273.55582430  .00088692  00000+0  21976-2 0  9995,2 64446  53.1581 113.9217 0001137  92.6617 267.4518 15.39674943 16164,15.39674943,0.0001137,LEO
64447,STARLINK-34450,2025,93.53,-1.0,+,53.16,Active,0,LEO,USA,USA,Unknown,Unknown,Unknown,1 64447U 25130K   25273.55117819  .00096518  00000+0  23870-2 0  9992,2 64447  53.1580 113.8916 0000833  96.7704 263.3396 15.39690277 16160,15.39690277,8.33e-05,LEO
64448,STARLINK-34433,2025,93.53,-1.0,+,53.16,Active,0,LEO,USA,USA,Unknown,Unknown,Unknown,1 64448U 25130L   25273.54653696  .00094919  00000+0  23486-2 0  9996,2 64448  53.1592 113.8632 0000877  85.1464 274.9641 15.39683542 16160,15.39683542,8.77e-05,LEO
64449,STARLINK-34459,2025,93.53,-1.0,+,53.16,Active,0,LEO,USA,USA,Unknown,Unknown,Unknown,1 64449U 25130M   25273.53260540  .00085566  00000+0  21204-2 0  9992,2 64449  53.1577 113.7752 0003239  83.1149 277.0225 15.39686437 16167,15.39686437,0.0003239,LEO
64450,STARLINK-34361,2025,93.53,-1.0,+,53.16,Active,0,LEO,USA,USA,Unknown,Unknown,Unknown,1 64450U 25130N   25273.52795610  .00144303  00000+0  35500-2 0  9993,2 64450  53.1572 113.7449 0001823  89.2430 270.8784 15.39617073 17335,15.39617073,0.0001823,LEO
64451,STARLINK-34392,2025,93.53,-1.0,+,53.16,Active,0,LEO,USA,USA,Unknown,Unknown,Unknown,1 64451U 25130P   25273.58823205  .00105038  00000+0  25957-2 0  9999,2 64451  53.1585 113.4053 0000663 107.5899 252.5178 15.39669579 16175,15.39669579,6.63e-05,LEO
64452,STARLINK-34367,2025,93.53,-1.0,+,53.16,Active,0,LEO,USA,USA,Unknown,Unknown,Unknown,1 64452U 25130Q   25273.56013032  .00118213  00000+0  29130-2 0  9993,2 64452  53.1583 113.9488 0000614  74.5005 285.6068 15.39689584 16150,15.39689584,6.14e-05,LEO
64453,STARLINK-34221,2025,93.53,-1.0,+,53.16,Active,0,LEO,USA,USA,Unknown,Unknown,Unknown,1 64453U 25130R   25272.85535514  .00068193  00000+0  16990-2 0  9990,2 64453  53.1578 117.3688 0000734  52.2231 307.8840 15.39630795 16056,15.39630795,7.34e-05,LEO
64454,STARLINK-34282,2025,94.1,-1.0,+,53.16,Active,0,LEO,USA,USA,Unknown,Unknown,Unknown,1 64454U 25130S   25272.85527704  .00043236  00000+0  14651-2 0  9996,2 64454  53.1579 118.0800 0000806  90.1100 269.9993 15.30163066 16047,15.30163066,8.06e-05,LEO
64455,STARLINK-34295,2025,93.53,-1.0,+,53.16,Active,0,LEO,USA,USA,Unknown,Unknown,Unknown,1 64455U 25130T   25273.54619633  .00083614  00000+0  20729-2 0  9994,2 64455  53.1589 113.8602 0000777  15.1777 344.9251 15.39686551 16168,15.39686551,7.77e-05,LEO
64456,STARLINK-34430,2025,93.53,-1.0,+,53.16,Active,0,LEO,USA,USA,Unknown,Unknown,Unknown,1 64456U 25130U   25273.54154428  .00117074  00000+0  28818-2 0  9996,2 64456  53.1592 113.8280 0001467 134.7951 225.3173 15.39729119 16167,15.39729119,0.0001467,LEO
64457,STARLINK-34445,2025,93.53,-1.0,+,53.16,Active,0,LEO,USA,USA,Unknown,Unknown,Unknown,1 64457U 25130V   25273.27261012  .00058546  00000+0  14617-2 0  9995,2 64457  53.1585 114.9920 0001040  75.3148 284.7973 15.39634171 16124,15.39634171,0.000104,LEO
64458,STARLINK-34439,2025,93.53,-1.0,+,53.16,Active,0,LEO,USA,USA,Unknown,Unknown,Unknown,1 64458U 25130W   25273.26798387  .00084474  00000+0  20937-2 0  9996,2 64458  53.1576 114.9602 0002393  77.7711 282.3562 15.39688594 16122,15.39688594,0.0002393,LEO
64459,STARLINK-34421,2025,93.53,-1.0,+,53.16,Active,0,LEO,USA,USA,Unknown,Unknown,Unknown,1 64459U 25130X   25273.58789446  .00085732  00000+0  21284-2 0  9992,2 64459  53.1583 113.4025 0000831  87.1425 272.9675 15.39632694 16171,15.39632694,8.31e-05,LEO
64460,STARLINK-34423,2025,93.53,-1.0,+,53.16,Active,0,LEO,USA,USA,Unknown,Unknown,Unknown,1 64460U 25130Y   25273.58324980  .00096911  00000+0  23982-2 0  9990,2 64460  53.1567 113.3788 0001755  96.2503 263.8702 15.39668427 16177,15.39668427,0.0001755,LEO
64461,STARLINK-34418,2025,93.53,-1.0,+,53.16,Active,0,LEO,USA,USA,Unknown,Unknown,Unknown,1 64461U 25130Z   25273.57860952  .00124286  00000+0  30595-2 0  9999,2 64461  53.1580 113.3463 0000473  36.1413 323.9624 15.39691471 16178,15.39691471,4.73e-05,LEO
64462,STARLINK-34336,2025,94.11,-1.0,+,53.16,Active,0,LEO,USA,USA,Unknown,Unknown,Unknown,1 64462U 25130AA  25273.58640017  .00058464  00000+0  19667-2 0  9990,2 64462  53.1583 114.7483 0000784 130.8691 229.2378 15.30264025 16158,15.30264025,7.84e-05,LEO
64463,STARLINK-34400,2025,94.1,-1.0,+,53.16,Active,0,LEO,USA,USA,Unknown,Unknown,Unknown,1 64463U 25130AB  25273.58008146  .00050862  00000+0  17162-2 0  9994,2 64463  53.1587 114.7797 0001099  92.8562 267.2565 15.30227383 16151,15.30227383,0.0001099,LEO
64464,STARLINK-34429,2025,93.53,-1.0,+,53.16,Active,0,LEO,USA,USA,Unknown,Unknown,Unknown,1 64464U 25130AC  25273.56467591  .00109978  00000+0  27127-2 0  9991,2 64464  53.1587 113.2603 0000914  80.5258 279.5850 15.39701695 16170,15.39701695,9.14e-05,LEO
64465,STARLINK-34449,2025,93.53,-1.0,+,53.16,Active,0,LEO,USA,USA,Unknown,Unknown,Unknown,1 64465U 25130AD  25273.27715526  .00073197  00000+0  18206-2 0  9995,2 64465  53.1583 114.3016 0001153  87.4934 272.6203 15.39650449 16132,15.39650449,0.0001153,LEO
64467,COSMOS 2589,2025,1436.51,-1.0,+,0.69,Active,0,GSO,Russia,Russia/USSR,Unknown,Unknown,Unknown,1 64467U 25131A   25272.50925984 -.00000226  00000+0  00000+0 0  9998,2 64467   0.6867 283.3001 3650869 172.7944 193.2497  1.00242662  1014,1.00242662,0.3650869,GSO
64470,CHINASAT 9C,2025,1436.13,-1.0,+,0.02,Active,0,GSO,PRC,China,Unknown,Unknown,Unknown,1 64470U 25132A   25273.61572459 -.00000246  00000+0  00000+0 0  9993,2 64470   0.0092 191.2324 0004771  50.5841  81.6872  1.00273010  1544,1.0027301,0.0004771,GEO
64472,STARLINK-34493,2025,93.53,-1.0,+,53.16,Active,0,LEO,USA,USA,Unknown,Unknown,Unknown,1 64472U 25133A   25273.64633980  .00092763  00000+0  23003-2 0  9991,2 64472  53.1572 143.8403 0001372  76.7150 283.4007 15.39628026 16632,15.39628026,0.0001372,LEO
64473,STARLINK-34492,2025,93.53,-1.0,+,53.16,Active,0,LEO,USA,USA,Unknown,Unknown,Unknown,1 64473U 25133B   25273.64203036  .00082868  00000+0  20588-2 0  9997,2 64473  53.1581 143.8122 0001310  77.8685 282.2467 15.39627198 16634,15.39627198,0.000131,LEO
64474,STARLINK-34474,2025,93.53,-1.0,+,53.16,Active,0,LEO,USA,USA,Unknown,Unknown,Unknown,1 64474U 25133C   25273.64169560  .00092523  00000+0  22947-2 0  9991,2 64474  53.1581 143.8098 0001466  90.5603 269.5569 15.39625272 16611,15.39625272,0.0001466,LEO
64475,STARLINK-34523,2025,93.53,-1.0,+,53.16,Active,0,LEO,USA,USA,Unknown,Unknown,Unknown,1 64475U 25133D   25273.63738776  .00099595  00000+0  24667-2 0  9999,2 64475  53.1576 143.7818 0001405  96.9239 263.1925 15.39629797 16615,15.39629797,0.0001405,LEO
64476,STARLINK-34496,2025,93.53,-1.0,+,53.16,Active,0,LEO,USA,USA,Unknown,Unknown,Unknown,1 64476U 25133E   25273.63705190  .00078033  00000+0  19408-2 0  9995,2 64476  53.1580 143.7800 0001258  94.2384 265.8765 15.39621280 16632,15.3962128,0.0001258,LEO
64477,STARLINK-34375,2025,93.53,-1.0,+,53.16,Active,0,LEO,USA,USA,Unknown,Unknown,Unknown,1 64477U 25133F   25273.63274339  .00093132  00000+0  23088-2 0  9998,2 64477  53.1577 143.7529 0001376  83.3079 276.8083 15.39635275 16632,15.39635275,0.0001376,LEO
64478,STARLINK-34490,2025,93.52,-1.0,+,53.16,Active,0,LEO,USA,USA,Unknown,Unknown,Unknown,1 64478U 25133G   25273.62810102  .00094259  00000+0  23351-2 0  9996,2 64478  53.1566 143.7229 0001829  81.0338 279.0874 15.39650125 16638,15.39650125,0.0001829,LEO
64479,STARLINK-34528,2025,93.53,-1.0,+,53.16,Active,0,LEO,USA,USA,Unknown,Unknown,Unknown,1 64479U 25133H   25273.63240499  .00085562  00000+0  21272-2 0  9991,2 64479  53.1571 143.7504 0001302  86.6482 273.4672 15.39589560 16614,15.3958956,0.0001302,LEO
64480,STARLINK-34518,2025,93.52,-1.0,+,53.16,Active,0,LEO,USA,USA,Unknown,Unknown,Unknown,1 64480U 25133J   25273.36810641  .00060729  00000+0  15165-2 0  9997,2 64480  53.1578 144.9434 0001311  82.6412 277.4742 15.39613041 16431,15.39613041,0.0001311,LEO
64481,STARLINK-34526,2025,93.53,-1.0,+,53.16,Active,0,LEO,USA,USA,Unknown,Unknown,Unknown,1 64481U 25133K   25273.62345905  .00146100  00000+0  35914-2 0  9995,2 64481  53.1578 143.6940 0001549 101.4759 258.6420 15.39632722 16528,15.39632722,0.0001549,LEO
64482,STARLINK-34527,2025,93.53,-1.0,+,53.16,Active,0,LEO,USA,USA,Unknown,Unknown,Unknown,1 64482U 25133L   25273.62312281  .00096378  00000+0  23879-2 0  9995,2 64482  53.1579 143.6920 0001759  77.5196 282.6006 15.39634435 16631,15.39634435,0.0001759,LEO
